1 55978U 23040A   24002.19638204  .00005912  00000-0  23879-3 0  9993
2 55978  97.6091 265.6432 0012860  38.4399 321.7752 15.25089301 43388